SEEDS II (CO-66)        
1 32791U 08021J   26068.92109284  .00023758  00000+0  84213-3 0  9995
2 32791  97.7519  62.3611 0001448 359.2618   0.8619 15.29097235972108
STARLINK-35404          
1 66336U 25253T   26068.41641333  .00028356  00000+0  10356-2 0  9998
2 66336  42.9989 213.9611 0001172 281.8139  78.2581 15.27594810 20200
